[
  {
    "OBJECT_NAME": "STARLINK-5146",
    "OBJECT_ID": "22136Y",
    "EPOCH": "2025-11-11T06:47:23.807616",
    "MEAN_MOTION": 15.08847129,
    "ECCENTRICITY": 0.0001433,
    "INCLINATION": 53.2162,
    "RA_OF_ASC_NODE": 150.3292,
    "ARG_OF_PERICENTER": 86.6908,
    "MEAN_ANOMALY": 273.4248,
    "EPHEMERIS_TYPE": 0,
    "CLASSIFICATION_TYPE": "U",
    "NORAD_CAT_ID": 54073,
    "ELEMENT_SET_NO": 999,
    "REV_AT_EPOCH": 16904,
    "BSTAR": 5.8893e-05,
    "MEAN_MOTION_DOT": 6.5e-06,
    "MEAN_MOTION_DDOT": 0.0,
    "TLE_LINE1": "1 54073U 22136Y   25315.28291444  .00000650  00000+0  58893-4 0  9990",
    "TLE_LINE2": "2 54073  53.2162 150.3292 0001433  86.6908 273.4248 15.08847129169045",
    "COMMENT": "Grouped by shell and plane from TLE"
  },
  {
    "OBJECT_NAME": "STARLINK-5192",
    "OBJECT_ID": "22136Z",
    "EPOCH": "2025-11-11T06:44:08.798496",
    "MEAN_MOTION": 15.08780501,
    "ECCENTRICITY": 0.000137,
    "INCLINATION": 53.2164,
    "RA_OF_ASC_NODE": 155.2957,
    "ARG_OF_PERICENTER": 102.6605,
    "MEAN_ANOMALY": 257.4541,
    "EPHEMERIS_TYPE": 0,
    "CLASSIFICATION_TYPE": "U",
    "NORAD_CAT_ID": 54074,
    "ELEMENT_SET_NO": 999,
    "REV_AT_EPOCH": 16897,
    "BSTAR": 0.0,
    "MEAN_MOTION_DOT": -1.4e-05,
    "MEAN_MOTION_DDOT": 0.0,
    "TLE_LINE1": "1 54074U 22136Z   25315.28065739 -.00001400  00000+0 -69992-4 0  9995",
    "TLE_LINE2": "2 54074  53.2164 155.2957 0001370 102.6605 257.4541 15.08780501168972",
    "COMMENT": "Grouped by shell and plane from TLE"
  },
  {
    "OBJECT_NAME": "STARLINK-5212",
    "OBJECT_ID": "22136AA",
    "EPOCH": "2025-11-11T06:42:06.590016",
    "MEAN_MOTION": 15.08847716,
    "ECCENTRICITY": 0.0001614,
    "INCLINATION": 53.215,
    "RA_OF_ASC_NODE": 150.3032,
    "ARG_OF_PERICENTER": 84.3617,
    "MEAN_ANOMALY": 275.7559,
    "EPHEMERIS_TYPE": 0,
    "CLASSIFICATION_TYPE": "U",
    "NORAD_CAT_ID": 54075,
    "ELEMENT_SET_NO": 999,
    "REV_AT_EPOCH": 16904,
    "BSTAR": 0.00011993,
    "MEAN_MOTION_DOT": 1.622e-05,
    "MEAN_MOTION_DDOT": 0.0,
    "TLE_LINE1": "1 54075U 22136AA  25315.27924294  .00001622  00000+0  11993-3 0  9996",
    "TLE_LINE2": "2 54075  53.2150 150.3032 0001614  84.3617 275.7559 15.08847716169041",
    "COMMENT": "Grouped by shell and plane from TLE"
  },
  {
    "OBJECT_NAME": "STARLINK-5201",
    "OBJECT_ID": "22136AB",
    "EPOCH": "2025-11-11T06:29:40.067232",
    "MEAN_MOTION": 15.08838226,
    "ECCENTRICITY": 0.0001421,
    "INCLINATION": 53.2152,
    "RA_OF_ASC_NODE": 155.9284,
    "ARG_OF_PERICENTER": 93.2211,
    "MEAN_ANOMALY": 266.8944,
    "EPHEMERIS_TYPE": 0,
    "CLASSIFICATION_TYPE": "U",
    "NORAD_CAT_ID": 54076,
    "ELEMENT_SET_NO": 999,
    "REV_AT_EPOCH": 16896,
    "BSTAR": 7.9505e-05,
    "MEAN_MOTION_DOT": 9.78e-06,
    "MEAN_MOTION_DDOT": 0.0,
    "TLE_LINE1": "1 54076U 22136AB  25315.27060263  .00000978  00000+0  79505-4 0  9991",
    "TLE_LINE2": "2 54076  53.2152 155.9284 0001421  93.2211 266.8944 15.08838226168964",
    "COMMENT": "Grouped by shell and plane from TLE"
  },
  {
    "OBJECT_NAME": "STARLINK-5160",
    "OBJECT_ID": "22136AF",
    "EPOCH": "2025-11-11T06:20:59.725824",
    "MEAN_MOTION": 15.08842085,
    "ECCENTRICITY": 0.0001137,
    "INCLINATION": 53.2154,
    "RA_OF_ASC_NODE": 150.9153,
    "ARG_OF_PERICENTER": 89.2239,
    "MEAN_ANOMALY": 270.8883,
    "EPHEMERIS_TYPE": 0,
    "CLASSIFICATION_TYPE": "U",
    "NORAD_CAT_ID": 54080,
    "ELEMENT_SET_NO": 999,
    "REV_AT_EPOCH": 16903,
    "BSTAR": 6.809800000000001e-05,
    "MEAN_MOTION_DOT": 7.96e-06,
    "MEAN_MOTION_DDOT": 0.0,
    "TLE_LINE1": "1 54080U 22136AF  25315.26458016  .00000796  00000+0  68098-4 0  9995",
    "TLE_LINE2": "2 54080  53.2154 150.9153 0001137  89.2239 270.8883 15.08842085169034",
    "COMMENT": "Grouped by shell and plane from TLE"
  },
  {
    "OBJECT_NAME": "STARLINK-5179",
    "OBJECT_ID": "22136BD",
    "EPOCH": "2025-11-09T22:15:21.330144",
    "MEAN_MOTION": 15.08851613,
    "ECCENTRICITY": 0.0001518,
    "INCLINATION": 53.214,
    "RA_OF_ASC_NODE": 151.7678,
    "ARG_OF_PERICENTER": 67.955,
    "MEAN_ANOMALY": 292.1603,
    "EPHEMERIS_TYPE": 0,
    "CLASSIFICATION_TYPE": "U",
    "NORAD_CAT_ID": 54102,
    "ELEMENT_SET_NO": 999,
    "REV_AT_EPOCH": 16890,
    "BSTAR": 0.00010301,
    "MEAN_MOTION_DOT": 1.352e-05,
    "MEAN_MOTION_DDOT": 0.0,
    "TLE_LINE1": "1 54102U 22136BD  25313.92733021  .00001352  00000+0  10301-3 0  9995",
    "TLE_LINE2": "2 54102  53.2140 151.7678 0001518  67.9550 292.1603 15.08851613168906",
    "COMMENT": "Grouped by shell and plane from TLE"
  },
  {
    "OBJECT_NAME": "STARLINK-5259",
    "OBJECT_ID": "22141BE",
    "EPOCH": "2025-11-11T06:12:17.832672",
    "MEAN_MOTION": 15.08838885,
    "ECCENTRICITY": 0.0001548,
    "INCLINATION": 53.2169,
    "RA_OF_ASC_NODE": 155.439,
    "ARG_OF_PERICENTER": 87.3918,
    "MEAN_ANOMALY": 272.7252,
    "EPHEMERIS_TYPE": 0,
    "CLASSIFICATION_TYPE": "U",
    "NORAD_CAT_ID": 54209,
    "ELEMENT_SET_NO": 999,
    "REV_AT_EPOCH": 16826,
    "BSTAR": 6.5218e-05,
    "MEAN_MOTION_DOT": 7.5e-06,
    "MEAN_MOTION_DDOT": 0.0,
    "TLE_LINE1": "1 54209U 22141BE  25315.25853973  .00000750  00000+0  65218-4 0  9995",
    "TLE_LINE2": "2 54209  53.2169 155.4390 0001548  87.3918 272.7252 15.08838885168263",
    "COMMENT": "Grouped by shell and plane from TLE"
  },
  {
    "OBJECT_NAME": "STARLINK-30235",
    "OBJECT_ID": "23096E",
    "EPOCH": "2025-11-10T14:51:38.629440",
    "MEAN_MOTION": 15.02538985,
    "ECCENTRICITY": 0.0001137,
    "INCLINATION": 43.0031,
    "RA_OF_ASC_NODE": 150.3718,
    "ARG_OF_PERICENTER": 266.6941,
    "MEAN_ANOMALY": 93.3771,
    "EPHEMERIS_TYPE": 0,
    "CLASSIFICATION_TYPE": "U",
    "NORAD_CAT_ID": 57294,
    "ELEMENT_SET_NO": 999,
    "REV_AT_EPOCH": 12970,
    "BSTAR": 5.5757e-05,
    "MEAN_MOTION_DOT": 5.5e-06,
    "MEAN_MOTION_DDOT": 0.0,
    "TLE_LINE1": "1 57294U 23096E   25314.61919710  .00000550  00000+0  55757-4 0  9998",
    "TLE_LINE2": "2 57294  43.0031 150.3718 0001137 266.6941  93.3771 15.02538985129706",
    "COMMENT": "Grouped by shell and plane from TLE"
  },
  {
    "OBJECT_NAME": "STARLINK-6299",
    "OBJECT_ID": "23099AG",
    "EPOCH": "2025-11-11T06:56:29.378688",
    "MEAN_MOTION": 15.02538892,
    "ECCENTRICITY": 0.000131,
    "INCLINATION": 43.0042,
    "RA_OF_ASC_NODE": 159.5059,
    "ARG_OF_PERICENTER": 262.3374,
    "MEAN_ANOMALY": 97.7319,
    "EPHEMERIS_TYPE": 0,
    "CLASSIFICATION_TYPE": "U",
    "NORAD_CAT_ID": 57358,
    "ELEMENT_SET_NO": 999,
    "REV_AT_EPOCH": 12919,
    "BSTAR": 0.00011645999999999999,
    "MEAN_MOTION_DOT": 1.37e-05,
    "MEAN_MOTION_DDOT": 0.0,
    "TLE_LINE1": "1 57358U 23099AG  25315.28922892  .00001370  00000+0  11646-3 0  9990",
    "TLE_LINE2": "2 57358  43.0042 159.5059 0001310 262.3374  97.7319 15.02538892129190",
    "COMMENT": "Grouped by shell and plane from TLE"
  },
  {
    "OBJECT_NAME": "STARLINK-6348",
    "OBJECT_ID": "23099AJ",
    "EPOCH": "2025-11-11T06:46:53.995296",
    "MEAN_MOTION": 15.02538592,
    "ECCENTRICITY": 0.0001098,
    "INCLINATION": 43.0027,
    "RA_OF_ASC_NODE": 159.4575,
    "ARG_OF_PERICENTER": 266.1721,
    "MEAN_ANOMALY": 93.8996,
    "EPHEMERIS_TYPE": 0,
    "CLASSIFICATION_TYPE": "U",
    "NORAD_CAT_ID": 57360,
    "ELEMENT_SET_NO": 999,
    "REV_AT_EPOCH": 12845,
    "BSTAR": 0.00010104000000000001,
    "MEAN_MOTION_DOT": 1.162e-05,
    "MEAN_MOTION_DDOT": 0.0,
    "TLE_LINE1": "1 57360U 23099AJ  25315.28256939  .00001162  00000+0  10104-3 0  9992",
    "TLE_LINE2": "2 57360  43.0027 159.4575 0001098 266.1721  93.8996 15.02538592128452",
    "COMMENT": "Grouped by shell and plane from TLE"
  },
  {
    "OBJECT_NAME": "STARLINK-6340",
    "OBJECT_ID": "23099AK",
    "EPOCH": "2025-11-11T06:59:41.584992",
    "MEAN_MOTION": 15.02537735,
    "ECCENTRICITY": 0.0001171,
    "INCLINATION": 43.0025,
    "RA_OF_ASC_NODE": 159.5244,
    "ARG_OF_PERICENTER": 269.5006,
    "MEAN_ANOMALY": 90.5703,
    "EPHEMERIS_TYPE": 0,
    "CLASSIFICATION_TYPE": "U",
    "NORAD_CAT_ID": 57361,
    "ELEMENT_SET_NO": 999,
    "REV_AT_EPOCH": 12845,
    "BSTAR": 8.0324e-05,
    "MEAN_MOTION_DOT": 8.82e-06,
    "MEAN_MOTION_DDOT": 0.0,
    "TLE_LINE1": "1 57361U 23099AK  25315.29145353  .00000882  00000+0  80324-4 0  9991",
    "TLE_LINE2": "2 57361  43.0025 159.5244 0001171 269.5006  90.5703 15.02537735128458",
    "COMMENT": "Grouped by shell and plane from TLE"
  },
  {
    "OBJECT_NAME": "STARLINK-6356",
    "OBJECT_ID": "23099AM",
    "EPOCH": "2025-11-11T06:51:41.708160",
    "MEAN_MOTION": 15.0253956,
    "ECCENTRICITY": 0.000123,
    "INCLINATION": 43.0038,
    "RA_OF_ASC_NODE": 159.4825,
    "ARG_OF_PERICENTER": 270.6032,
    "MEAN_ANOMALY": 89.4669,
    "EPHEMERIS_TYPE": 0,
    "CLASSIFICATION_TYPE": "U",
    "NORAD_CAT_ID": 57363,
    "ELEMENT_SET_NO": 999,
    "REV_AT_EPOCH": 12845,
    "BSTAR": 9.270500000000001e-05,
    "MEAN_MOTION_DOT": 1.049e-05,
    "MEAN_MOTION_DDOT": 0.0,
    "TLE_LINE1": "1 57363U 23099AM  25315.28589940  .00001049  00000+0  92705-4 0  9998",
    "TLE_LINE2": "2 57363  43.0038 159.4825 0001230 270.6032  89.4669 15.02539560128452",
    "COMMENT": "Grouped by shell and plane from TLE"
  },
  {
    "OBJECT_NAME": "STARLINK-6338",
    "OBJECT_ID": "23099AN",
    "EPOCH": "2025-11-11T06:40:30.302400",
    "MEAN_MOTION": 15.02540467,
    "ECCENTRICITY": 0.0001076,
    "INCLINATION": 43.0021,
    "RA_OF_ASC_NODE": 159.422,
    "ARG_OF_PERICENTER": 269.1785,
    "MEAN_ANOMALY": 90.8934,
    "EPHEMERIS_TYPE": 0,
    "CLASSIFICATION_TYPE": "U",
    "NORAD_CAT_ID": 57364,
    "ELEMENT_SET_NO": 999,
    "REV_AT_EPOCH": 12845,
    "BSTAR": 6.399300000000001e-05,
    "MEAN_MOTION_DOT": 6.61e-06,
    "MEAN_MOTION_DDOT": 0.0,
    "TLE_LINE1": "1 57364U 23099AN  25315.27812850  .00000661  00000+0  63993-4 0  9993",
    "TLE_LINE2": "2 57364  43.0021 159.4220 0001076 269.1785  90.8934 15.02540467128459",
    "COMMENT": "Grouped by shell and plane from TLE"
  }
]